[
    {
        "CCSDS_OMM_VERS": "3.0",
        "COMMENT": "GENERATED VIA SPACE-TRACK.ORG API",
        "CREATION_DATE": "2025-04-12T22:09:39",
        "ORIGINATOR": "18 SPCS",
        "OBJECT_NAME": "COSMOS 2474 (GLONASS)",
        "OBJECT_ID": "2011-055A",
        "CENTER_NAME": "EARTH",
        "REF_FRAME": "TEME",
        "TIME_SYSTEM": "UTC",
        "MEAN_ELEMENT_THEORY": "SGP4",
        "EPOCH": "2025-04-12T11:30:01.698912",
        "MEAN_MOTION": "2.13101356",
        "ECCENTRICITY": "0.00116760",
        "INCLINATION": "65.0509",
        "RA_OF_ASC_NODE": "87.4395",
        "ARG_OF_PERICENTER": "250.9478",
        "MEAN_ANOMALY": "282.1932",
        "EPHEMERIS_TYPE": "0",
        "CLASSIFICATION_TYPE": "U",
        "NORAD_CAT_ID": "37829",
        "ELEMENT_SET_NO": "999",
        "REV_AT_EPOCH": "10527",
        "BSTAR": "0.00000000000000",
        "MEAN_MOTION_DOT": "0.00000023",
        "MEAN_MOTION_DDOT": "0.0000000000000",
        "SEMIMAJOR_AXIS": "25508.076",
        "PERIOD": "675.735",
        "APOAPSIS": "19159.724",
        "PERIAPSIS": "19100.158",
        "OBJECT_TYPE": "PAYLOAD",
        "RCS_SIZE": "LARGE",
        "COUNTRY_CODE": "CIS",
        "LAUNCH_DATE": "2011-10-02",
        "SITE": "PKMTR",
        "DECAY_DATE": null,
        "FILE": "4699941",
        "GP_ID": "285443519",
        "TLE_LINE0": "0 COSMOS 2474 (GLONASS)",
        "TLE_LINE1": "1 37829U 11055A   25102.47918633  .00000023  00000-0  00000-0 0  9997",
        "TLE_LINE2": "2 37829  65.0509  87.4395 0011676 250.9478 282.1932  2.13101356105272"
    }
]